<?xml version="1.0" encoding="ISO-8859-1"?><cdm xmlns:ndm="urn:ccsds:recommendation:navigation:schema:ndmxml" xmlns:xsi="http://www.w3.org/2001/XMLSchema-instance" id="CCSDS_CDM_VERS" version="1.0" xsi:noNamespaceSchemaLocation="http://sanaregistry.org/r/ndmxml/ndmxml-1.0-master.xsd"><header><COMMENT>Secondary = Almanac; Radius = DISCOS</COMMENT><COMMENT>EVENT_ID:CA-24001A-90094A-202312021836</COMMENT><CREATION_DATE>2023-11-24T04:11:19.791</CREATION_DATE><ORIGINATOR>CAESAR</ORIGINATOR><MESSAGE_FOR>SAT_1</MESSAGE_FOR><MESSAGE_ID>ALM_GEO_16138706</MESSAGE_ID></header><body><relativeMetadataData><TCA>2023-12-02T18:37:14.909</TCA><MISS_DISTANCE units="m">4489.645939664205</MISS_DISTANCE><RELATIVE_SPEED units="m/s">725.2670595212819</RELATIVE_SPEED><relativeStateVector><RELATIVE_POSITION_R units="m">316.53081440936666</RELATIVE_POSITION_R><RELATIVE_POSITION_T units="m">4446.914712328937</RELATIVE_POSITION_T><RELATIVE_POSITION_N units="m">530.7338771409572</RELATIVE_POSITION_N><RELATIVE_VELOCITY_R units="m/s">-0.5057018836219709</RELATIVE_VELOCITY_R><RELATIVE_VELOCITY_T units="m/s">-85.87419690617949</RELATIVE_VELOCITY_T><RELATIVE_VELOCITY_N units="m/s">720.1650326126438</RELATIVE_VELOCITY_N></relativeStateVector><START_SCREEN_PERIOD>2023-11-24T01:55:36.856</START_SCREEN_PERIOD><STOP_SCREEN_PERIOD>2023-12-08T01:55:36.856</STOP_SCREEN_PERIOD><SCREEN_VOLUME_FRAME>RTN</SCREEN_VOLUME_FRAME><SCREEN_VOLUME_SHAPE>ELLIPSOID</SCREEN_VOLUME_SHAPE><SCREEN_VOLUME_X units="m">50000.0</SCREEN_VOLUME_X><SCREEN_VOLUME_Y units="m">50000.0</SCREEN_VOLUME_Y><SCREEN_VOLUME_Z units="m">50000.0</SCREEN_VOLUME_Z><SCREEN_ENTRY_TIME>2023-12-02T18:36:06.247</SCREEN_ENTRY_TIME><SCREEN_EXIT_TIME>2023-12-02T18:38:23.571</SCREEN_EXIT_TIME></relativeMetadataData><segment><metadata><OBJECT>OBJECT1</OBJECT><OBJECT_DESIGNATOR>00001</OBJECT_DESIGNATOR><CATALOG_NAME>SATCAT</CATALOG_NAME><OBJECT_NAME>SAT_1</OBJECT_NAME><INTERNATIONAL_DESIGNATOR>2024-001A</INTERNATIONAL_DESIGNATOR><OBJECT_TYPE>UNKNOWN</OBJECT_TYPE><EPHEMERIS_NAME>2024-001A_SAT_1_OPER_20231123T150500_S20231123T150000_E20231227T120000.jspoc</EPHEMERIS_NAME><COVARIANCE_METHOD>CALCULATED</COVARIANCE_METHOD><MANEUVERABLE>YES</MANEUVERABLE><REF_FRAME>ITRF</REF_FRAME></metadata><data><odParameters/><additionalParameters><COMMENT>JAC_LAST_ACC_OB = N/A</COMMENT><AREA_PC units="m**2">1231.6299839133426</AREA_PC></additionalParameters><stateVector><X units="km">41841.221445073345</X><Y units="km">-5327.607780161476</Y><Z units="km">-18.514149783488946</Z><X_DOT units="km/s">0.0017039929726737455</X_DOT><Y_DOT units="km/s">-0.002318294137993689</Y_DOT><Z_DOT units="km/s">0.003993021051947017</Z_DOT></stateVector><covarianceMatrix><CR_R units="m**2">1320.7507837107614</CR_R><CT_R units="m**2">-9.14271436336378E-12</CT_R><CT_T units="m**2">258044.62796478329</CT_T><CN_R units="m**2">3.552713678800501E-15</CN_R><CN_T units="m**2">-5.6843418860808015E-14</CN_T><CN_N units="m**2">51719.45401639349</CN_N><CRDOT_R units="m**2/s">-2.931106691996671E-16</CRDOT_R><CRDOT_T units="m**2/s">-18.80417288034545</CRDOT_T><CRDOT_N units="m**2/s">-6.938893903907228E-18</CRDOT_N><CRDOT_RDOT units="m**2/s**2">0.0013702936600647876</CRDOT_RDOT><CTDOT_R units="m**2/s">0.09624546833092146</CTDOT_R><CTDOT_T units="m**2/s">-5.558361556163992E-16</CTDOT_T><CTDOT_N units="m**2/s">1.4162390878091902E-18</CTDOT_N><CTDOT_RDOT units="m**2/s**2">-4.0074154180066573E-20</CTDOT_RDOT><CTDOT_TDOT units="m**2/s**2">7.013579161552798E-6</CTDOT_TDOT><CNDOT_R units="m**2/s">-9.364057927428949E-19</CNDOT_R><CNDOT_T units="m**2/s">1.5233132037927031E-18</CNDOT_T><CNDOT_N units="m**2/s">-2.389289639821686E-21</CNDOT_N><CNDOT_RDOT units="m**2/s**2">-1.595752164593865E-23</CNDOT_RDOT><CNDOT_TDOT units="m**2/s**2">5.047721430929952E-23</CNDOT_TDOT><CNDOT_NDOT units="m**2/s**2">-7.257507892734565E-26</CNDOT_NDOT><CDRG_R units="m**3/kg">0.0</CDRG_R><CDRG_T units="m**3/kg">0.0</CDRG_T><CDRG_N units="m**3/kg">0.0</CDRG_N><CDRG_RDOT units="m**3/(kg*s)">0.0</CDRG_RDOT><CDRG_TDOT units="m**3/(kg*s)">0.0</CDRG_TDOT><CDRG_NDOT units="m**3/(kg*s)">0.0</CDRG_NDOT><CDRG_DRG units="m**4/kg**2">0.0</CDRG_DRG><CSRP_R units="m**3/kg">0.0</CSRP_R><CSRP_T units="m**3/kg">0.0</CSRP_T><CSRP_N units="m**3/kg">0.0</CSRP_N><CSRP_RDOT units="m**3/(kg*s)">0.0</CSRP_RDOT><CSRP_TDOT units="m**3/(kg*s)">0.0</CSRP_TDOT><CSRP_NDOT units="m**3/(kg*s)">0.0</CSRP_NDOT><CSRP_DRG units="m**4/kg**2">0.0</CSRP_DRG><CSRP_SRP units="m**4/kg**2">0.0</CSRP_SRP></covarianceMatrix></data></segment><segment><metadata><OBJECT>OBJECT2</OBJECT><OBJECT_DESIGNATOR>20923</OBJECT_DESIGNATOR><CATALOG_NAME>SATCAT</CATALOG_NAME><OBJECT_NAME>GORIZONT 21</OBJECT_NAME><INTERNATIONAL_DESIGNATOR>1990-094A</INTERNATIONAL_DESIGNATOR><OBJECT_TYPE>UNKNOWN</OBJECT_TYPE><EPHEMERIS_NAME>almLe20231123_105416Au20231123_070042</EPHEMERIS_NAME><COVARIANCE_METHOD>CALCULATED</COVARIANCE_METHOD><MANEUVERABLE>NO</MANEUVERABLE><REF_FRAME>ITRF</REF_FRAME><GRAVITY_MODEL>EIGEN GL04S: 24D 24O</GRAVITY_MODEL><ATMOSPHERIC_MODEL>NONE</ATMOSPHERIC_MODEL><N_BODY_PERTURBATIONS>MOON,SUN</N_BODY_PERTURBATIONS><SOLAR_RAD_PRESSURE>YES</SOLAR_RAD_PRESSURE><EARTH_TIDES>NO</EARTH_TIDES></metadata><data><odParameters><TIME_LASTOB_START>2023-11-23T07:00:42.468</TIME_LASTOB_START><TIME_LASTOB_END>2023-11-23T07:00:42.468</TIME_LASTOB_END><RECOMMENDED_OD_SPAN units="d">14.0</RECOMMENDED_OD_SPAN><ACTUAL_OD_SPAN units="d">13.363258790139005</ACTUAL_OD_SPAN><OBS_AVAILABLE>535</OBS_AVAILABLE><OBS_USED>535</OBS_USED><TRACKS_AVAILABLE>25</TRACKS_AVAILABLE><TRACKS_USED>25</TRACKS_USED><RESIDUALS_ACCEPTED units="%">100.0</RESIDUALS_ACCEPTED><WEIGHTED_RMS>0.5638776066845506</WEIGHTED_RMS></odParameters><additionalParameters><COMMENT>JAC_LAST_ACC_OB = Greater Than (&gt;) 48 Hours</COMMENT><AREA_PC units="m**2">101.93376457451753</AREA_PC><CR_AREA_OVER_MASS units="m**2/kg">0.007470071965720084</CR_AREA_OVER_MASS></additionalParameters><stateVector><X units="km">41842.0972737058</X><Y units="km">-5323.237180121966</Y><Z units="km">-17.977772896648442</Z><X_DOT units="km/s">-0.009448954442393024</X_DOT><Y_DOT units="km/s">-0.08840969512511722</Y_DOT><Z_DOT units="km/s">0.7240461046074734</Z_DOT></stateVector><covarianceMatrix><CR_R units="m**2">19197.3804864361</CR_R><CT_R units="m**2">28521.856083016497</CT_R><CT_T units="m**2">56838.89125098028</CT_T><CN_R units="m**2">304.8655538473041</CN_R><CN_T units="m**2">676.8324031044743</CN_T><CN_N units="m**2">450.6429814725485</CN_N><CRDOT_R units="m**2/s">-2.1876918235524947</CRDOT_R><CRDOT_T units="m**2/s">-4.230891667310698</CRDOT_T><CRDOT_N units="m**2/s">-0.05364844034579186</CRDOT_N><CRDOT_RDOT units="m**2/s**2">3.173613869321049E-4</CRDOT_RDOT><CTDOT_R units="m**2/s">-1.4084679016595474</CTDOT_R><CTDOT_T units="m**2/s">-2.0963464931780726</CTDOT_T><CTDOT_N units="m**2/s">-0.022545483617216533</CTDOT_N><CTDOT_RDOT units="m**2/s**2">1.6076929038801174E-4</CTDOT_RDOT><CTDOT_TDOT units="m**2/s**2">1.0333743186871767E-4</CTDOT_TDOT><CNDOT_R units="m**2/s">-0.020093218053113118</CNDOT_R><CNDOT_T units="m**2/s">-0.03715399519890265</CNDOT_T><CNDOT_N units="m**2/s">-0.016890248639376763</CNDOT_N><CNDOT_RDOT units="m**2/s**2">2.7961099190922053E-6</CNDOT_RDOT><CNDOT_TDOT units="m**2/s**2">1.4789946857412864E-6</CNDOT_TDOT><CNDOT_NDOT units="m**2/s**2">8.361502222257336E-7</CNDOT_NDOT><CDRG_R units="m**3/kg">0.0</CDRG_R><CDRG_T units="m**3/kg">0.0</CDRG_T><CDRG_N units="m**3/kg">0.0</CDRG_N><CDRG_RDOT units="m**3/(kg*s)">0.0</CDRG_RDOT><CDRG_TDOT units="m**3/(kg*s)">0.0</CDRG_TDOT><CDRG_NDOT units="m**3/(kg*s)">0.0</CDRG_NDOT><CDRG_DRG units="m**4/kg**2">0.0</CDRG_DRG><CSRP_R units="m**3/kg">0.0</CSRP_R><CSRP_T units="m**3/kg">0.0</CSRP_T><CSRP_N units="m**3/kg">0.0</CSRP_N><CSRP_RDOT units="m**3/(kg*s)">0.0</CSRP_RDOT><CSRP_TDOT units="m**3/(kg*s)">0.0</CSRP_TDOT><CSRP_NDOT units="m**3/(kg*s)">0.0</CSRP_NDOT><CSRP_DRG units="m**4/kg**2">0.0</CSRP_DRG><CSRP_SRP units="m**4/kg**2">0.0</CSRP_SRP></covarianceMatrix></data></segment></body></cdm>